SEEDS II (CO-66)        
1 32791U 08021J   26068.92109284  .00023758  00000+0  84213-3 0  9995
2 32791  97.7519  62.3611 0001448 359.2618   0.8619 15.29097235972108
STARLINK-34639          
1 64767U 25147N   26068.75597057  .00026000  00000+0  88682-3 0  9998
2 64767  53.1592 242.3162 0001105  61.7541 298.3571 15.30203089 38713
